{
  "type": "FeatureCollection",
  "features": [
    {
      "type": "Feature",
      "properties": {
        "norad_id": 44333,
        "name": "AT&T T-16",
        "group": "intelsat",
        "lat": -0.010573819619447115,
        "lon": -35.2407317243486,
        "alt_km": 35789.254878079024,
        "timestamp": "2025-12-02T23:34:15.181614+00:00",
        "meta_object_name": "AT&T T-16",
        "meta_object_id": "2019-034A",
        "meta_epoch": "2025-12-02T09:32:38.891040",
        "meta_mean_motion": 1.00268471,
        "meta_eccentricity": 5.47e-05,
        "meta_inclination": 0.0272,
        "meta_ra_of_asc_node": 65.2898,
        "meta_arg_of_pericenter": 92.9501,
        "meta_mean_anomaly": 315.5745,
        "meta_ephemeris_type": 0,
        "meta_classification_type": "U",
        "meta_norad_cat_id": 44333,
        "meta_element_set_no": 999,
        "meta_rev_at_epoch": 2366,
        "meta_bstar": 0,
        "meta_mean_motion_dot": -9.4e-07,
        "meta_mean_motion_ddot": 0,
        "tle_line1": "1 44333U 19034A   25336.39767235 -.00000094  00000+0  00000+0 0  9997",
        "tle_line2": "2 44333   0.0272  65.2898 0000547  92.9501 315.5745  1.00268471 23666"
      },
      "geometry": {
        "type": "Point",
        "coordinates": [
          -35.2407317243486,
          -0.010573819619447115
        ]
      }
    },
    {
      "type": "Feature",
      "properties": {
        "norad_id": 44476,
        "name": "INTELSAT 39 (IS-39)",
        "group": "intelsat",
        "lat": 0.0007424436286547957,
        "lon": 127.55257066620483,
        "alt_km": 35783.07898929882,
        "timestamp": "2025-12-02T23:34:15.181626+00:00",
        "meta_object_name": "INTELSAT 39 (IS-39)",
        "meta_object_id": "2019-049B",
        "meta_epoch": "2025-12-02T08:56:22.873344",
        "meta_mean_motion": 1.00267705,
        "meta_eccentricity": 0.0001092,
        "meta_inclination": 0.015,
        "meta_ra_of_asc_node": 305.5203,
        "meta_arg_of_pericenter": 208.2763,
        "meta_mean_anomaly": 113.7284,
        "meta_ephemeris_type": 0,
        "meta_classification_type": "U",
        "meta_norad_cat_id": 44476,
        "meta_element_set_no": 999,
        "meta_rev_at_epoch": 2315,
        "meta_bstar": 0,
        "meta_mean_motion_dot": 5.5e-07,
        "meta_mean_motion_ddot": 0,
        "tle_line1": "1 44476U 19049B   25336.37248696  .00000055  00000+0  00000+0 0  9990",
        "tle_line2": "2 44476   0.0150 305.5203 0001092 208.2763 113.7284  1.00267705 23156"
      },
      "geometry": {
        "type": "Point",
        "coordinates": [
          127.55257066620483,
          0.0007424436286547957
        ]
      }
    },
    {
      "type": "Feature",
      "properties": {
        "norad_id": 46114,
        "name": "GALAXY 30 (G-30)",
        "group": "intelsat",
        "lat": -0.0012161995429191689,
        "lon": -59.35623562926152,
        "alt_km": 35779.36062461762,
        "timestamp": "2025-12-02T23:34:15.181638+00:00",
        "meta_object_name": "GALAXY 30 (G-30)",
        "meta_object_id": "2020-056C",
        "meta_epoch": "2025-12-02T10:45:38.709216",
        "meta_mean_motion": 1.00272614,
        "meta_eccentricity": 0.0002388,
        "meta_inclination": 0.013,
        "meta_ra_of_asc_node": 294.9342,
        "meta_arg_of_pericenter": 315.3424,
        "meta_mean_anomaly": 217.6932,
        "meta_ephemeris_type": 0,
        "meta_classification_type": "U",
        "meta_norad_cat_id": 46114,
        "meta_element_set_no": 999,
        "meta_rev_at_epoch": 1932,
        "meta_bstar": 0,
        "meta_mean_motion_dot": 5.7e-07,
        "meta_mean_motion_ddot": 0,
        "tle_line1": "1 46114U 20056C   25336.44836469  .00000057  00000+0  00000+0 0  9992",
        "tle_line2": "2 46114   0.0130 294.9342 0002388 315.3424 217.6932  1.00272614 19326"
      },
      "geometry": {
        "type": "Point",
        "coordinates": [
          -59.35623562926152,
          -0.0012161995429191689
        ]
      }
    },
    {
      "type": "Feature",
      "properties": {
        "norad_id": 54026,
        "name": "GALAXY 33 (G-33)",
        "group": "intelsat",
        "lat": -0.01920193824934073,
        "lon": -67.35984784368547,
        "alt_km": 35780.130763290515,
        "timestamp": "2025-12-02T23:34:15.181649+00:00",
        "meta_object_name": "GALAXY 33 (G-33)",
        "meta_object_id": "2022-128A",
        "meta_epoch": "2025-12-02T11:02:38.577408",
        "meta_mean_motion": 1.00272387,
        "meta_eccentricity": 0.0001945,
        "meta_inclination": 0.0132,
        "meta_ra_of_asc_node": 331.7136,
        "meta_arg_of_pericenter": 275.0197,
        "meta_mean_anomaly": 217.4995,
        "meta_ephemeris_type": 0,
        "meta_classification_type": "U",
        "meta_norad_cat_id": 54026,
        "meta_element_set_no": 999,
        "meta_rev_at_epoch": 1177,
        "meta_bstar": 0,
        "meta_mean_motion_dot": 9.9e-07,
        "meta_mean_motion_ddot": 0,
        "tle_line1": "1 54026U 22128A   25336.46016872  .00000099  00000+0  00000+0 0  9991",
        "tle_line2": "2 54026   0.0132 331.7136 0001945 275.0197 217.4995  1.00272387 11772"
      },
      "geometry": {
        "type": "Point",
        "coordinates": [
          -67.35984784368547,
          -0.01920193824934073
        ]
      }
    },
    {
      "type": "Feature",
      "properties": {
        "norad_id": 54027,
        "name": "GALAXY 34 (G-34)",
        "group": "intelsat",
        "lat": -0.01439085973978534,
        "lon": -63.36772672334601,
        "alt_km": 35781.722784604746,
        "timestamp": "2025-12-02T23:34:15.181661+00:00",
        "meta_object_name": "GALAXY 34 (G-34)",
        "meta_object_id": "2022-128B",
        "meta_epoch": "2025-12-02T10:45:38.709216",
        "meta_mean_motion": 1.00273114,
        "meta_eccentricity": 0.0001418,
        "meta_inclination": 0.0144,
        "meta_ra_of_asc_node": 321.8387,
        "meta_arg_of_pericenter": 285.835,
        "meta_mean_anomaly": 216.2925,
        "meta_ephemeris_type": 0,
        "meta_classification_type": "U",
        "meta_norad_cat_id": 54027,
        "meta_element_set_no": 999,
        "meta_rev_at_epoch": 1194,
        "meta_bstar": 0,
        "meta_mean_motion_dot": 7.9e-07,
        "meta_mean_motion_ddot": 0,
        "tle_line1": "1 54027U 22128B   25336.44836469  .00000079  00000+0  00000+0 0  9990",
        "tle_line2": "2 54027   0.0144 321.8387 0001418 285.8350 216.2925  1.00273114 11947"
      },
      "geometry": {
        "type": "Point",
        "coordinates": [
          -63.36772672334601,
          -0.01439085973978534
        ]
      }
    },
    {
      "type": "Feature",
      "properties": {
        "norad_id": 54243,
        "name": "GALAXY 31 (G-31)",
        "group": "intelsat",
        "lat": -0.011887008033768761,
        "lon": -55.39268527102631,
        "alt_km": 35779.240636434944,
        "timestamp": "2025-12-02T23:34:15.181673+00:00",
        "meta_object_name": "GALAXY 31 (G-31)",
        "meta_object_id": "2022-153A",
        "meta_epoch": "2025-12-02T10:45:38.709216",
        "meta_mean_motion": 1.00271586,
        "meta_eccentricity": 0.0002073,
        "meta_inclination": 0.0127,
        "meta_ra_of_asc_node": 330.9706,
        "meta_arg_of_pericenter": 295.3373,
        "meta_mean_anomaly": 205.6338,
        "meta_ephemeris_type": 0,
        "meta_classification_type": "U",
        "meta_norad_cat_id": 54243,
        "meta_element_set_no": 999,
        "meta_rev_at_epoch": 516,
        "meta_bstar": 0,
        "meta_mean_motion_dot": 0,
        "meta_mean_motion_ddot": 0,
        "tle_line1": "1 54243U 22153A   25336.44836469  .00000000  00000+0  00000+0 0  9992",
        "tle_line2": "2 54243   0.0127 330.9706 0002073 295.3373 205.6338  1.00271586  5161"
      },
      "geometry": {
        "type": "Point",
        "coordinates": [
          -55.39268527102631,
          -0.011887008033768761
        ]
      }
    },
    {
      "type": "Feature",
      "properties": {
        "norad_id": 54244,
        "name": "GALAXY 32 (G-32)",
        "group": "intelsat",
        "lat": 0.010224072257057177,
        "lon": -25.366470642495514,
        "alt_km": 35777.54384431509,
        "timestamp": "2025-12-02T23:34:15.181685+00:00",
        "meta_object_name": "GALAXY 32 (G-32)",
        "meta_object_id": "2022-153B",
        "meta_epoch": "2025-12-02T11:10:37.032096",
        "meta_mean_motion": 1.0027048,
        "meta_eccentricity": 0.0002464,
        "meta_inclination": 0.01,
        "meta_ra_of_asc_node": 320.0818,
        "meta_arg_of_pericenter": 344.284,
        "meta_mean_anomaly": 203.865,
        "meta_ephemeris_type": 0,
        "meta_classification_type": "U",
        "meta_norad_cat_id": 54244,
        "meta_element_set_no": 999,
        "meta_rev_at_epoch": 1117,
        "meta_bstar": 0,
        "meta_mean_motion_dot": -1.54e-06,
        "meta_mean_motion_ddot": 0,
        "tle_line1": "1 54244U 22153B   25336.46570639 -.00000154  00000+0  00000+0 0  9990",
        "tle_line2": "2 54244   0.0100 320.0818 0002464 344.2840 203.8650  1.00270480 11171"
      },
      "geometry": {
        "type": "Point",
        "coordinates": [
          -25.366470642495514,
          0.010224072257057177
        ]
      }
    }
  ]
}